YAOGAN-43 01G           
1 60464U 24148G   26068.44348481  .00010133  00000+0  35873-3 0  9993
2 60464  35.0006  62.0013 0007382 306.3543  53.6492 15.28332833 87004
STARLINK-36334          
1 67471U 26008AC  26068.40200992  .00042737  00000+0  15508-2 0  9992
2 67471  43.0015 207.2306 0004619 300.6201  59.4195 15.27631199  9525
